{
    "links": {
        "self": "http://www.neowsapp.com/rest/v1/neo/3393817?api_key=iIulBulltgU6a56xZRHN4H3l9WmuAYTsLGpBGhQ2"
    },
    "id": "3393817",
    "neo_reference_id": "3393817",
    "name": "(2007 VU83)",
    "designation": "2007 VU83",
    "nasa_jpl_url": "http://ssd.jpl.nasa.gov/sbdb.cgi?sstr=3393817",
    "absolute_magnitude_h": 25.3,
    "estimated_diameter": {
        "kilometers": {
            "estimated_diameter_min": 0.0231502122,
            "estimated_diameter_max": 0.0517654482
        },
        "meters": {
            "estimated_diameter_min": 23.150212221,
            "estimated_diameter_max": 51.7654482198
        },
        "miles": {
            "estimated_diameter_min": 0.0143848705,
            "estimated_diameter_max": 0.0321655483
        },
        "feet": {
            "estimated_diameter_min": 75.9521422633,
            "estimated_diameter_max": 169.8341531374
        }
    },
    "is_potentially_hazardous_asteroid": false,
    "close_approach_data": [
        {
            "close_approach_date": "2007-11-03",
            "close_approach_date_full": "2007-Nov-03 15:00",
            "epoch_date_close_approach": 1194102000000,
            "relative_velocity": {
                "kilometers_per_second": "9.355356561",
                "kilometers_per_hour": "33679.2836197301",
                "miles_per_hour": "20926.9970913817"
            },
            "miss_distance": {
                "astronomical": "0.0280819223",
                "lunar": "10.9238677747",
                "kilometers": "4200995.761585501",
                "miles": "2610377.7214258738"
            },
            "orbiting_body": "Earth"
        },
        {
            "close_approach_date": "2008-01-31",
            "close_approach_date_full": "2008-Jan-31 03:30",
            "epoch_date_close_approach": 1201750200000,
            "relative_velocity": {
                "kilometers_per_second": "12.3890571378",
                "kilometers_per_hour": "44600.6056959115",
                "miles_per_hour": "27713.0819114401"
            },
            "miss_distance": {
                "astronomical": "0.0446653182",
                "lunar": "17.3748087798",
                "kilometers": "6681836.465592234",
                "miles": "4151900.6535274692"
            },
            "orbiting_body": "Mars"
        }
    ],
    "orbital_data": {
        "orbit_id": "10",
        "orbit_determination_date": "2017-04-06 09:19:36",
        "first_observation_date": "2007-11-07",
        "last_observation_date": "2007-12-01",
        "data_arc_in_days": 24,
        "observations_used": 34,
        "orbit_uncertainty": "8",
        "minimum_orbit_intersection": ".00975303",
        "jupiter_tisserand_invariant": "3.302",
        "epoch_osculation": "2454415.5",
        "eccentricity": ".5836562749777127",
        "semi_major_axis": "2.354526181183064",
        "inclination": ".5959928302985211",
        "ascending_node_longitude": "106.1820988930741",
        "orbital_period": "1319.634657241518",
        "perihelion_distance": ".9802922009362579",
        "perihelion_argument": "270.0863636855073",
        "aphelion_distance": "3.72876016142987",
        "perihelion_time": "2454389.456706399632",
        "mean_anomaly": "7.104682833755382",
        "mean_motion": ".2728027776661471",
        "equinox": "J2000",
        "orbit_class": {
            "orbit_class_type": "APO",
            "orbit_class_description": "Near-Earth asteroid orbits which cross the Earth’s orbit similar to that of 1862 Apollo",
            "orbit_class_range": "a (semi-major axis) > 1.0 AU; q (perihelion) < 1.017 AU"
        }
    },
    "is_sentry_object": false
}